GLOBALSTAR M024         
1 25883U 99043A   24223.84854925 -.00000001  00000+0  22670-2 0  9999
2 25883  52.0061   0.8512 0000784 338.8730 161.5839 11.10161488 80393
GLOBALSTAR M027         
1 25884U 99043B   24223.85702801 -.00000086  00000+0 -85831-3 0  9999
2 25884  52.0214  70.0207 0020677 208.8970 151.0679 11.04369166106952
GLOBALSTAR M054         
1 25885U 99043C   24223.44849740 -.00000061  00000+0  25360-3 0  9992
2 25885  52.0106 250.3809 0004991   5.5090 134.6271 11.39211609 83630
GLOBALSTAR M053         
1 25886U 99043D   24223.91599154 -.00000044  00000+0  72392-3 0  9994
2 25886  51.9958 179.1382 0003666 282.0408 145.4549 11.27657517 84448
GLOBALSTAR M058         
1 25907U 99049A   24223.35111082 -.00000063  00000+0  28203-3 0  9995
2 25907  51.9906 219.1789 0002200  36.5573 323.5412 11.93179834504437
GLOBALSTAR M050         
1 25908U 99049B   24223.47353834 -.00000083  00000+0  57625-4 0  9995
2 25908  51.9968 249.7425 0009187 133.5629  16.9674 12.07437323110659
GLOBALSTAR M033         
1 25909U 99049C   24223.83027769 -.00000101  00000+0 -86423-4 0  9991
2 25909  51.9909 142.0335 0013019 349.9070  10.1514 12.20274816497852
GLOBALSTAR M055         
1 25910U 99049D   24223.84922379 -.00000052  00000+0  35828-3 0  9991
2 25910  52.0006 167.8290 0006654 207.2043 152.8461 12.29405903130112
